<?xml version="1.0" encoding="UTF-8"?>
<ndm xmlns:xsi="http://www.w3.org/2001/XMLSchema-instance" xsi:noNamespaceSchemaLocation="https://sanaregistry.org/r/ndmxml_unqualified/ndmxml-2.0.0-master-2.0.xsd">
<omm id="CCSDS_OMM_VERS" version="2.0">
<header><CREATION_DATE/><ORIGINATOR/></header><body><segment><metadata><OBJECT_NAME>ORBCOMM FM24</OBJECT_NAME><OBJECT_ID>1998-053D</OBJECT_ID><CENTER_NAME>EARTH</CENTER_NAME><REF_FRAME>TEME</REF_FRAME><TIME_SYSTEM>UTC</TIME_SYSTEM><MEAN_ELEMENT_THEORY>SGP4</MEAN_ELEMENT_THEORY></metadata><data><meanElements><EPOCH>2025-02-07T09:04:31.295136</EPOCH><MEAN_MOTION>14.37507135</MEAN_MOTION><ECCENTRICITY>.0002809</ECCENTRICITY><INCLINATION>45.0065</INCLINATION><RA_OF_ASC_NODE>164.3370</RA_OF_ASC_NODE><ARG_OF_PERICENTER>252.8942</ARG_OF_PERICENTER><MEAN_ANOMALY>107.1598</MEAN_ANOMALY></meanElements><tleParameters><EPHEMERIS_TYPE>0</EPHEMERIS_TYPE><CLASSIFICATION_TYPE>U</CLASSIFICATION_TYPE><NORAD_CAT_ID>25478</NORAD_CAT_ID><ELEMENT_SET_NO>999</ELEMENT_SET_NO><REV_AT_EPOCH>37876</REV_AT_EPOCH><BSTAR>.93814E-3</BSTAR><MEAN_MOTION_DOT>.2694E-4</MEAN_MOTION_DOT><MEAN_MOTION_DDOT>0</MEAN_MOTION_DDOT></tleParameters></data></segment></body></omm>
<omm id="CCSDS_OMM_VERS" version="2.0">
<header><CREATION_DATE/><ORIGINATOR/></header><body><segment><metadata><OBJECT_NAME>ORBCOMM FM25</OBJECT_NAME><OBJECT_ID>1998-053E</OBJECT_ID><CENTER_NAME>EARTH</CENTER_NAME><REF_FRAME>TEME</REF_FRAME><TIME_SYSTEM>UTC</TIME_SYSTEM><MEAN_ELEMENT_THEORY>SGP4</MEAN_ELEMENT_THEORY></metadata><data><meanElements><EPOCH>2025-02-07T18:20:39.797664</EPOCH><MEAN_MOTION>14.37493403</MEAN_MOTION><ECCENTRICITY>.0004328</ECCENTRICITY><INCLINATION>45.0058</INCLINATION><RA_OF_ASC_NODE>160.7638</RA_OF_ASC_NODE><ARG_OF_PERICENTER>288.0689</ARG_OF_PERICENTER><MEAN_ANOMALY>71.9688</MEAN_ANOMALY></meanElements><tleParameters><EPHEMERIS_TYPE>0</EPHEMERIS_TYPE><CLASSIFICATION_TYPE>U</CLASSIFICATION_TYPE><NORAD_CAT_ID>25479</NORAD_CAT_ID><ELEMENT_SET_NO>999</ELEMENT_SET_NO><REV_AT_EPOCH>37911</REV_AT_EPOCH><BSTAR>.91784E-3</BSTAR><MEAN_MOTION_DOT>.2632E-4</MEAN_MOTION_DOT><MEAN_MOTION_DDOT>0</MEAN_MOTION_DDOT></tleParameters></data></segment></body></omm>
<omm id="CCSDS_OMM_VERS" version="2.0">
<header><CREATION_DATE/><ORIGINATOR/></header><body><segment><metadata><OBJECT_NAME>ORBCOMM FM26</OBJECT_NAME><OBJECT_ID>1998-053F</OBJECT_ID><CENTER_NAME>EARTH</CENTER_NAME><REF_FRAME>TEME</REF_FRAME><TIME_SYSTEM>UTC</TIME_SYSTEM><MEAN_ELEMENT_THEORY>SGP4</MEAN_ELEMENT_THEORY></metadata><data><meanElements><EPOCH>2025-02-07T20:00:10.448064</EPOCH><MEAN_MOTION>14.36640047</MEAN_MOTION><ECCENTRICITY>.0005394</ECCENTRICITY><INCLINATION>45.0053</INCLINATION><RA_OF_ASC_NODE>156.0005</RA_OF_ASC_NODE><ARG_OF_PERICENTER>316.9560</ARG_OF_PERICENTER><MEAN_ANOMALY>43.0865</MEAN_ANOMALY></meanElements><tleParameters><EPHEMERIS_TYPE>0</EPHEMERIS_TYPE><CLASSIFICATION_TYPE>U</CLASSIFICATION_TYPE><NORAD_CAT_ID>25480</NORAD_CAT_ID><ELEMENT_SET_NO>999</ELEMENT_SET_NO><REV_AT_EPOCH>37904</REV_AT_EPOCH><BSTAR>.69829E-3</BSTAR><MEAN_MOTION_DOT>.1933E-4</MEAN_MOTION_DOT><MEAN_MOTION_DDOT>0</MEAN_MOTION_DDOT></tleParameters></data></segment></body></omm>
<omm id="CCSDS_OMM_VERS" version="2.0">
<header><CREATION_DATE/><ORIGINATOR/></header><body><segment><metadata><OBJECT_NAME>ORBCOMM FM27</OBJECT_NAME><OBJECT_ID>1998-053G</OBJECT_ID><CENTER_NAME>EARTH</CENTER_NAME><REF_FRAME>TEME</REF_FRAME><TIME_SYSTEM>UTC</TIME_SYSTEM><MEAN_ELEMENT_THEORY>SGP4</MEAN_ELEMENT_THEORY></metadata><data><meanElements><EPOCH>2025-02-07T18:05:27.772224</EPOCH><MEAN_MOTION>14.37501948</MEAN_MOTION><ECCENTRICITY>.0001975</ECCENTRICITY><INCLINATION>45.0041</INCLINATION><RA_OF_ASC_NODE>161.0544</RA_OF_ASC_NODE><ARG_OF_PERICENTER>224.9237</ARG_OF_PERICENTER><MEAN_ANOMALY>135.1452</MEAN_ANOMALY></meanElements><tleParameters><EPHEMERIS_TYPE>0</EPHEMERIS_TYPE><CLASSIFICATION_TYPE>U</CLASSIFICATION_TYPE><NORAD_CAT_ID>25481</NORAD_CAT_ID><ELEMENT_SET_NO>999</ELEMENT_SET_NO><REV_AT_EPOCH>37904</REV_AT_EPOCH><BSTAR>.96416E-3</BSTAR><MEAN_MOTION_DOT>.2773E-4</MEAN_MOTION_DOT><MEAN_MOTION_DDOT>0</MEAN_MOTION_DDOT></tleParameters></data></segment></body></omm>
<omm id="CCSDS_OMM_VERS" version="2.0">
<header><CREATION_DATE/><ORIGINATOR/></header><body><segment><metadata><OBJECT_NAME>ORBCOMM FM28</OBJECT_NAME><OBJECT_ID>1998-053H</OBJECT_ID><CENTER_NAME>EARTH</CENTER_NAME><REF_FRAME>TEME</REF_FRAME><TIME_SYSTEM>UTC</TIME_SYSTEM><MEAN_ELEMENT_THEORY>SGP4</MEAN_ELEMENT_THEORY></metadata><data><meanElements><EPOCH>2025-02-08T03:48:33.751008</EPOCH><MEAN_MOTION>14.37759634</MEAN_MOTION><ECCENTRICITY>.0003994</ECCENTRICITY><INCLINATION>45.0051</INCLINATION><RA_OF_ASC_NODE>96.8543</RA_OF_ASC_NODE><ARG_OF_PERICENTER>335.1619</ARG_OF_PERICENTER><MEAN_ANOMALY>24.9036</MEAN_ANOMALY></meanElements><tleParameters><EPHEMERIS_TYPE>0</EPHEMERIS_TYPE><CLASSIFICATION_TYPE>U</CLASSIFICATION_TYPE><NORAD_CAT_ID>25482</NORAD_CAT_ID><ELEMENT_SET_NO>999</ELEMENT_SET_NO><REV_AT_EPOCH>37995</REV_AT_EPOCH><BSTAR>.64751E-3</BSTAR><MEAN_MOTION_DOT>.1825E-4</MEAN_MOTION_DOT><MEAN_MOTION_DDOT>0</MEAN_MOTION_DDOT></tleParameters></data></segment></body></omm>
<omm id="CCSDS_OMM_VERS" version="2.0">
<header><CREATION_DATE/><ORIGINATOR/></header><body><segment><metadata><OBJECT_NAME>ORBCOMM FM30</OBJECT_NAME><OBJECT_ID>1999-065A</OBJECT_ID><CENTER_NAME>EARTH</CENTER_NAME><REF_FRAME>TEME</REF_FRAME><TIME_SYSTEM>UTC</TIME_SYSTEM><MEAN_ELEMENT_THEORY>SGP4</MEAN_ELEMENT_THEORY></metadata><data><meanElements><EPOCH>2025-02-08T02:46:56.460864</EPOCH><MEAN_MOTION>14.36800173</MEAN_MOTION><ECCENTRICITY>.000588</ECCENTRICITY><INCLINATION>45.0326</INCLINATION><RA_OF_ASC_NODE>340.4505</RA_OF_ASC_NODE><ARG_OF_PERICENTER>67.0722</ARG_OF_PERICENTER><MEAN_ANOMALY>293.0746</MEAN_ANOMALY></meanElements><tleParameters><EPHEMERIS_TYPE>0</EPHEMERIS_TYPE><CLASSIFICATION_TYPE>U</CLASSIFICATION_TYPE><NORAD_CAT_ID>25980</NORAD_CAT_ID><ELEMENT_SET_NO>999</ELEMENT_SET_NO><REV_AT_EPOCH>31641</REV_AT_EPOCH><BSTAR>.68231E-3</BSTAR><MEAN_MOTION_DOT>.1892E-4</MEAN_MOTION_DOT><MEAN_MOTION_DDOT>0</MEAN_MOTION_DDOT></tleParameters></data></segment></body></omm>
<omm id="CCSDS_OMM_VERS" version="2.0">
<header><CREATION_DATE/><ORIGINATOR/></header><body><segment><metadata><OBJECT_NAME>ORBCOMM FM31</OBJECT_NAME><OBJECT_ID>1999-065B</OBJECT_ID><CENTER_NAME>EARTH</CENTER_NAME><REF_FRAME>TEME</REF_FRAME><TIME_SYSTEM>UTC</TIME_SYSTEM><MEAN_ELEMENT_THEORY>SGP4</MEAN_ELEMENT_THEORY></metadata><data><meanElements><EPOCH>2025-02-07T19:21:44.934912</EPOCH><MEAN_MOTION>14.36767215</MEAN_MOTION><ECCENTRICITY>.0002873</ECCENTRICITY><INCLINATION>45.0239</INCLINATION><RA_OF_ASC_NODE>335.4471</RA_OF_ASC_NODE><ARG_OF_PERICENTER>82.8732</ARG_OF_PERICENTER><MEAN_ANOMALY>277.2442</MEAN_ANOMALY></meanElements><tleParameters><EPHEMERIS_TYPE>0</EPHEMERIS_TYPE><CLASSIFICATION_TYPE>U</CLASSIFICATION_TYPE><NORAD_CAT_ID>25981</NORAD_CAT_ID><ELEMENT_SET_NO>999</ELEMENT_SET_NO><REV_AT_EPOCH>31539</REV_AT_EPOCH><BSTAR>.71969E-3</BSTAR><MEAN_MOTION_DOT>.2001E-4</MEAN_MOTION_DOT><MEAN_MOTION_DDOT>0</MEAN_MOTION_DDOT></tleParameters></data></segment></body></omm>
<omm id="CCSDS_OMM_VERS" version="2.0">
<header><CREATION_DATE/><ORIGINATOR/></header><body><segment><metadata><OBJECT_NAME>ORBCOMM FM32</OBJECT_NAME><OBJECT_ID>1999-065C</OBJECT_ID><CENTER_NAME>EARTH</CENTER_NAME><REF_FRAME>TEME</REF_FRAME><TIME_SYSTEM>UTC</TIME_SYSTEM><MEAN_ELEMENT_THEORY>SGP4</MEAN_ELEMENT_THEORY></metadata><data><meanElements><EPOCH>2025-02-07T20:04:22.956384</EPOCH><MEAN_MOTION>14.35805182</MEAN_MOTION><ECCENTRICITY>.000457</ECCENTRICITY><INCLINATION>45.0167</INCLINATION><RA_OF_ASC_NODE>351.0100</RA_OF_ASC_NODE><ARG_OF_PERICENTER>88.6686</ARG_OF_PERICENTER><MEAN_ANOMALY>271.4685</MEAN_ANOMALY></meanElements><tleParameters><EPHEMERIS_TYPE>0</EPHEMERIS_TYPE><CLASSIFICATION_TYPE>U</CLASSIFICATION_TYPE><NORAD_CAT_ID>25982</NORAD_CAT_ID><ELEMENT_SET_NO>999</ELEMENT_SET_NO><REV_AT_EPOCH>31600</REV_AT_EPOCH><BSTAR>.86028E-3</BSTAR><MEAN_MOTION_DOT>.2372E-4</MEAN_MOTION_DOT><MEAN_MOTION_DDOT>0</MEAN_MOTION_DDOT></tleParameters></data></segment></body></omm>

</ndm>
